NORAD_CAT_ID,OBJECT_NAME,OBJECT_TYPE,EPOCH,MEAN_MOTION,ECCENTRICITY,INCLINATION,RA_OF_ASC_NODE,ARG_OF_PERICENTER,MEAN_ANOMALY,BSTAR,MEAN_MOTION_DOT,MEAN_MOTION_DDOT,TLE_LINE0,TLE_LINE1,TLE_LINE2,SEMIMAJOR_AXIS,PERIOD,APOGEE,PERIGEE,DECAYED
53572.0,STARLINK-4555,PAYLOAD,2024-05-31 05:14:30,15.08860308,0.0001463,53.2182,80.4106,78.1577,281.9579,0.00023744,3.495e-05,0.0,0 STARLINK-4555,1 53572U 22101AX  24152.21840615  .00003495  00000-0  23744-3 0  9993,2 53572  53.2182  80.4106 0001463  78.1577 281.9579 15.08860308 98707,6917.818,95.436,540.695,538.671,0.0
53572.0,STARLINK-4555,PAYLOAD,2024-05-31 19:32:58,15.0884686,0.0001518,53.218,77.732,89.4696,270.647,-5.217e-05,-1.118e-05,0.0,0 STARLINK-4555,1 53572U 22101AX  24152.81456580 -.00001118  00000-0 -52170-4 0  9991,2 53572  53.2180  77.7320 0001518  89.4696 270.6470 15.08846860 98791,6917.859,95.437,540.775,538.674,0.0
53572.0,STARLINK-4555,PAYLOAD,2024-05-31 22:43:44,15.08843111,0.0001445,53.2171,77.1379,89.3635,270.7522,-0.00014466,-2.59e-05,0.0,0 STARLINK-4555,1 53572U 22101AX  24152.94704710 -.00002590  00000-0 -14466-3 0  9996,2 53572  53.2171  77.1379 0001445  89.3635 270.7522 15.08843111 98818,6917.871,95.437,540.736,538.736,0.0
53572.0,STARLINK-4555,PAYLOAD,2024-06-01 11:26:49,15.08855287,0.0001393,53.2196,74.7604,99.8136,260.3014,-6.3455e-05,-1.298e-05,0.0,0 STARLINK-4555,1 53572U 22101AX  24153.47696104 -.00001298  00000-0 -63455-4 0  9999,2 53572  53.2196  74.7604 0001393  99.8136 260.3014 15.08855287 98899,6917.834,95.437,540.662,538.735,0.0
53572.0,STARLINK-4555,PAYLOAD,2024-06-01 19:23:45,15.08835208,0.0001712,53.2205,73.2755,97.5648,262.5538,2.3567e-05,8.7e-07,0.0,0 STARLINK-4555,1 53572U 22101AX  24153.80817099  .00000087  00000-0  23567-4 0  9997,2 53572  53.2205  73.2755 0001712  97.5648 262.5538 15.08835208 98941,6917.895,95.438,540.944,538.576,0.0
53572.0,STARLINK-4555,PAYLOAD,2024-06-02 11:17:37,15.08840148,0.0001521,53.2205,70.3025,96.7892,263.3273,9.1811e-05,1.173e-05,0.0,0 STARLINK-4555,1 53572U 22101AX  24154.47057129  .00001173  00000-0  91811-4 0  9995,2 53572  53.2205  70.3025 0001521  96.7892 263.3273 15.08840148 99045,6917.88,95.438,540.797,538.693,0.0
53572.0,STARLINK-4555,PAYLOAD,2024-06-02 17:39:10,15.08835457,0.0001274,53.2207,69.1135,96.4189,263.6949,0.0001032,1.355e-05,0.0,0 STARLINK-4555,1 53572U 22101AX  24154.73553452  .00001355  00000-0  10320-3 0  9991,2 53572  53.2207  69.1135 0001274  96.4189 263.6949 15.08835457 99080,6917.894,95.438,540.641,538.878,0.0
53572.0,STARLINK-4555,PAYLOAD,2024-06-03 03:11:29,15.08826849,0.0001422,53.2186,67.3276,96.5563,263.5591,3.2206e-05,2.25e-06,0.0,0 STARLINK-4555,1 53572U 22101AX  24155.13298365  .00000225  00000-0  32206-4 0  9998,2 53572  53.2186  67.3276 0001422  96.5563 263.5591 15.08826849 99148,6917.921,95.438,540.769,538.802,0.0
53572.0,STARLINK-4555,PAYLOAD,2024-06-03 11:08:24,15.0884475,0.0001531,53.2193,65.8384,87.7385,272.3782,0.00014381,2.002e-05,0.0,0 STARLINK-4555,1 53572U 22101AX  24155.46417194  .00002002  00000-0  14381-3 0  9995,2 53572  53.2193  65.8384 0001531  87.7385 272.3782 15.08844750 99190,6917.866,95.437,540.79,538.672,0.0
53572.0,STARLINK-4555,PAYLOAD,2024-06-04 03:02:16,15.08841192,0.0001345,53.2187,62.8652,89.045,271.0696,0.00011005,1.464e-05,0.0,0 STARLINK-4555,1 53572U 22101AX  24156.12657491  .00001464  00000-0  11005-3 0  9996,2 53572  53.2187  62.8652 0001345  89.0450 271.0696 15.08841192 99297,6917.877,95.437,540.672,538.811,0.0
53572.0,STARLINK-4555,PAYLOAD,2024-06-04 10:59:10,15.08861095,0.0001276,53.2185,61.3781,79.9132,280.2004,0.00022956,3.369e-05,0.0,0 STARLINK-4555,1 53572U 22101AX  24156.45775780  .00003369  00000-0  22956-3 0  9997,2 53572  53.2185  61.3781 0001276  79.9132 280.2004 15.08861095 99345,6917.816,95.436,540.564,538.798,0.0
53572.0,STARLINK-4555,PAYLOAD,2024-06-04 17:20:43,15.0885378,0.0002128,53.2149,60.1891,82.7392,277.3841,0.00029121,4.351e-05,0.0,0 STARLINK-4555,1 53572U 22101AX  24156.72272128  .00004351  00000-0  29121-3 0  9998,2 53572  53.2149  60.1891 0002128  82.7392 277.3841 15.08853780 99383,6917.838,95.437,541.175,538.231,0.0
53572.0,STARLINK-4555,PAYLOAD,2024-06-05 02:53:00,15.08873605,0.0001029,53.2189,58.4037,86.0607,274.0502,0.00025343,3.751e-05,0.0,0 STARLINK-4555,1 53572U 22101AX  24157.12014493  .00003751  00000-0  25343-3 0  9997,2 53572  53.2189  58.4037 0001029  86.0607 274.0502 15.08873605 99447,6917.778,95.435,540.355,538.931,0.0
53572.0,STARLINK-4555,PAYLOAD,2024-06-05 10:49:55,15.0887034,0.0001199,53.2192,56.9177,86.0964,274.0165,0.00020901,3.043e-05,0.0,0 STARLINK-4555,1 53572U 22101AX  24157.45134235  .00003043  00000-0  20901-3 0  9999,2 53572  53.2192  56.9177 0001199  86.0964 274.0165 15.08870340 99496,6917.788,95.436,540.482,538.823,0.0
53572.0,STARLINK-4555,PAYLOAD,2024-06-05 17:11:32,15.08819402,0.0001325,53.2195,55.7281,103.3157,256.7983,-0.00012018,-2.199e-05,0.0,0 STARLINK-4555,1 53572U 22101AX  24157.71634391 -.00002199  00000-0 -12018-3 0  9999,2 53572  53.2195  55.7281 0001325 103.3157 256.7983 15.08819402 99532,6917.943,95.439,540.725,538.892,0.0
53572.0,STARLINK-4555,PAYLOAD,2024-06-05 23:33:03,15.08827761,0.0001466,53.2171,54.5382,101.815,258.3007,-0.00022794,-3.913e-05,0.0,0 STARLINK-4555,1 53572U 22101AX  24157.98129051 -.00003913  00000-0 -22794-3 0  9997,2 53572  53.2171  54.5382 0001466 101.8150 258.3007 15.08827761 99573,6917.918,95.438,540.797,538.769,0.0
53572.0,STARLINK-4555,PAYLOAD,2024-06-06 10:40:45,15.0883258,0.0001663,53.2179,52.4567,106.0743,254.0432,-0.00024903,-4.248e-05,0.0,0 STARLINK-4555,1 53572U 22101AX  24158.44496997 -.00004248  00000-0 -24903-3 0  9991,2 53572  53.2179  52.4567 0001663 106.0743 254.0432 15.08832580 99645,6917.903,95.438,540.919,538.618,0.0
53572.0,STARLINK-4555,PAYLOAD,2024-06-07 16:53:05,15.08832401,0.0001766,53.2173,46.8075,107.2937,252.8249,0.00035724,5.401e-05,0.0,0 STARLINK-4555,1 53572U 22101AX  24159.70353826  .00005401  00000-0  35724-3 0  9997,2 53572  53.2173  46.8075 0001766 107.2937 252.8249 15.08832401 99837,6917.904,95.438,540.99,538.547,0.0
53572.0,STARLINK-4555,PAYLOAD,2024-06-07 23:14:38,15.08836295,0.0001255,53.2192,45.6199,100.4611,259.6523,0.00039403,5.988e-05,0.0,0 STARLINK-4555,1 53572U 22101AX  24159.96849957  .00005988  00000-0  39403-3 0  9998,2 53572  53.2192  45.6199 0001255 100.4611 259.6523 15.08836295 99878,6917.892,95.438,540.625,538.889,0.0
53572.0,STARLINK-4555,PAYLOAD,2024-06-08 08:46:56,15.0885871,6.75e-05,53.2183,43.834,81.7541,278.3528,0.00062026,9.602e-05,0.0,0 STARLINK-4555,1 53572U 22101AX  24160.36592825  .00009602  00000-0  62026-3 0  9997,2 53572  53.2183  43.8340 0000675  81.7541 278.3528 15.08858710 99930,6917.823,95.436,540.155,539.221,0.0
53572.0,STARLINK-4555,PAYLOAD,2024-06-08 21:30:02,15.0882826,0.0001122,53.2164,41.4573,89.3072,270.8049,6.5636e-06,-1.83e-06,0.0,0 STARLINK-4555,1 53572U 22101AX  24160.89586515 -.00000183  00000-0  65636-5 0  9992,2 53572  53.2164  41.4573 0001122  89.3072 270.8049 15.08828260100016,6917.916,95.438,540.557,539.005,0.0
53572.0,STARLINK-4555,PAYLOAD,2024-06-08 23:05:25,15.08845475,9.93e-05,53.2161,41.1571,94.0885,266.022,0.00033844,5.103e-05,0.0,0 STARLINK-4555,1 53572U 22101AX  24160.96209784  .00005103  00000-0  33844-3 0  9990,2 53572  53.2161  41.1571 0000993  94.0885 266.0220 15.08845475100024,6917.864,95.437,540.416,539.042,0.0
53572.0,STARLINK-4555,PAYLOAD,2024-06-09 21:20:49,15.08838685,9.29e-05,53.2158,36.9941,76.1397,283.9698,0.00012351,1.678e-05,0.0,0 STARLINK-4555,1 53572U 22101AX  24161.88946419  .00001678  00000-0  12351-3 0  9998,2 53572  53.2158  36.9941 0000929  76.1397 283.9698 15.08838685100168,6917.884,95.438,540.392,539.107,0.0
53572.0,STARLINK-4555,PAYLOAD,2024-06-09 22:56:12,15.08838773,9.25e-05,53.2157,36.6968,73.075,287.0343,0.00012729,1.739e-05,0.0,0 STARLINK-4555,1 53572U 22101AX  24161.95570438  .00001739  00000-0  12729-3 0  9997,2 53572  53.2157  36.6968 0000925  73.0750 287.0343 15.08838773100179,6917.884,95.438,540.389,539.109,0.0
53572.0,STARLINK-4555,PAYLOAD,2024-06-10 08:28:31,15.08849324,0.0001019,53.2163,34.912,67.4232,292.6868,0.00028595,4.267e-05,0.0,0 STARLINK-4555,1 53572U 22101AX  24162.35313873  .00004267  00000-0  28595-3 0  9997,2 53572  53.2163  34.9120 0001019  67.4232 292.6868 15.08849324100239,6917.852,95.437,540.422,539.012,0.0
53572.0,STARLINK-4555,PAYLOAD,2024-06-10 21:11:36,15.08836071,0.0001218,53.2164,32.534,76.9957,283.1172,0.00013443,1.852e-05,0.0,0 STARLINK-4555,1 53572U 22101AX  24162.88306669  .00001852  00000-0  13443-3 0  9993,2 53572  53.2164  32.5340 0001218  76.9957 283.1172 15.08836071100315,6917.892,95.438,540.6,538.915,0.0
53572.0,STARLINK-4555,PAYLOAD,2024-06-10 22:46:59,15.08844395,9.7e-05,53.2165,32.2365,80.3795,279.7306,0.00026628,3.953e-05,0.0,0 STARLINK-4555,1 53572U 22101AX  24162.94930294  .00003953  00000-0  26628-3 0  9990,2 53572  53.2165  32.2365 0000970  80.3795 279.7306 15.08844395100322,6917.867,95.437,540.403,539.061,0.0
53572.0,STARLINK-4555,PAYLOAD,2024-06-11 00:22:22,15.08845841,9e-05,53.2165,31.9389,80.2384,279.871,0.00027928,4.16e-05,0.0,0 STARLINK-4555,1 53572U 22101AX  24163.01554196  .00004160  00000-0  27928-3 0  9997,2 53572  53.2165  31.9389 0000900  80.2384 279.8710 15.08845841100338,6917.863,95.437,540.35,539.105,0.0
53572.0,STARLINK-4555,PAYLOAD,2024-06-11 08:19:18,15.0885322,9.49e-05,53.2165,30.4523,78.3438,281.766,0.0002761,4.111e-05,0.0,0 STARLINK-4555,1 53572U 22101AX  24163.34673785  .00004111  00000-0  27610-3 0  9993,2 53572  53.2165  30.4523 0000949  78.3438 281.7660 15.08853220100384,6917.84,95.437,540.361,539.048,0.0
53572.0,STARLINK-4555,PAYLOAD,2024-06-11 22:37:46,15.08850544,9.81e-05,53.2171,27.7769,85.6393,274.4711,0.00026936,4.003e-05,0.0,0 STARLINK-4555,1 53572U 22101AX  24163.94289866  .00004003  00000-0  26936-3 0  9992,2 53572  53.2171  27.7769 0000981  85.6393 274.4711 15.08850544100471,6917.848,95.437,540.392,539.035,0.0
